[Satellite]
VERSION=1.1
NAME=TIGRISAT
NICKNAME=TIGRISAT
TLE1=1 40043U 14033AK  18021.14592532  .00000151  00000-0  30007-4 0  9996
TLE2=2 40043  97.8295 263.6381 0059193 313.6309  45.9999 14.74087365192949
